CCSDS_OEM_VERS = 1.0
CREATION_DATE  = 2017-05-11T11:18:15
ORIGINATOR     = GMAT USER

META_START
OBJECT_NAME          = MOPSSat_alt_35785_km_RAAN_90_105
OBJECT_ID            = SatId
CENTER_NAME          = Earth
REF_FRAME            = EME2000
TIME_SYSTEM          = UTC
START_TIME           = 2017-01-01T00:00:00.000
USEABLE_START_TIME   = 2017-01-01T00:00:00.000
USEABLE_STOP_TIME    = 2017-01-02T00:00:00.000
STOP_TIME            = 2017-01-02T00:00:00.000
INTERPOLATION        = Lagrange
INTERPOLATION_DEGREE = 7 
META_STOP


                                                                                   

2017-01-01T03:58:20.000  -3.895426939285079e+04   5.604422390363126e+03   2.819537154955598e-01  -1.074395892964126e+00  -3.106177238873599e+00   3.308108083200318e-05
2017-01-01T03:58:30.000  -3.896500061569027e+04   5.573358789100332e+03   2.822845539258041e-01  -1.071848737372698e+00  -3.106542583784885e+00   3.308659931669842e-05
2017-01-01T03:58:40.000  -3.897570636959963e+04   5.542291545108205e+03   2.826154473870482e-01  -1.069302086972682e+00  -3.106905725669766e+00   3.309208639950372e-05
2017-01-01T03:58:50.000  -3.898638665952655e+04   5.511220680739573e+03   2.829463955617415e-01  -1.066755943497616e+00  -3.107266666298026e+00   3.309754208025672e-05
2017-01-01T03:59:00.000  -3.899704149046529e+04   5.480146218242063e+03   2.832773981332650e-01  -1.064210308670161e+00  -3.107625407440788e+00   3.310296635883122e-05
2017-01-01T03:59:10.000  -3.900767086740297e+04   5.449068179916726e+03   2.836084547842401e-01  -1.061665184215086e+00  -3.107981950868725e+00   3.310835923510960e-05
2017-01-01T03:59:20.000  -3.901827479555938e+04   5.417986587416727e+03   2.839395652040005e-01  -1.059120571801826e+00  -3.108336298360106e+00   3.311372070910769e-05
2017-01-01T03:59:30.000  -3.902885328014680e+04   5.386901462448615e+03   2.842707290811219e-01  -1.056576473101936e+00  -3.108688451692726e+00   3.311905078084899e-05
2017-01-01T03:59:40.000  -3.903940632642469e+04   5.355812826613833e+03   2.846019461051103e-01  -1.054032889776095e+00  -3.109038412645750e+00   3.312434945039450e-05
2017-01-01T03:59:50.000  -3.904993393955950e+04   5.324720701810864e+03   2.849332159621196e-01  -1.051489823507125e+00  -3.109386182994883e+00   3.312961671776451e-05
2017-01-01T04:00:00.000  -3.906043612472971e+04   5.293625109936796e+03   2.852645383381293e-01  -1.048947275975464e+00  -3.109731764516032e+00   3.313485258299912e-05
2017-01-01T04:00:10.000  -3.907091288712434e+04   5.262526072887130e+03   2.855959129189474e-01  -1.046405248859197e+00  -3.110075158985183e+00   3.314005704615455e-05
2017-01-01T04:00:20.000  -3.908136423184559e+04   5.231423612855267e+03   2.859273393870180e-01  -1.043863743858438e+00  -3.110416368175382e+00   3.314523010726277e-05
2017-01-01T04:00:30.000  -3.909179016404131e+04   5.200317751929283e+03   2.862588174257186e-01  -1.041322762662473e+00  -3.110755393860904e+00   3.315037176638937e-05
2017-01-01T04:00:40.000  -3.910219068885130e+04   5.169208512253741e+03   2.865903467176370e-01  -1.038782306962966e+00  -3.111092237815525e+00   3.315548202360951e-05
2017-01-01T04:00:50.000  -3.911256581164599e+04   5.138095915315906e+03   2.869219269521777e-01  -1.036242378395666e+00  -3.111426901820264e+00   3.316056087911948e-05
2017-01-01T04:01:00.000  -3.912291553778687e+04   5.106979982661293e+03   2.872535578179359e-01  -1.033702978598864e+00  -3.111759387655594e+00   3.316560833312451e-05
2017-01-01T04:01:10.000  -3.913323987268859e+04   5.075860735708997e+03   2.875852390046672e-01  -1.031164109198295e+00  -3.112089697103471e+00   3.317062438586732e-05
2017-01-01T04:01:20.000  -3.914353882165112e+04   5.044738196248188e+03   2.879169701979961e-01  -1.028625771847750e+00  -3.112417831941799e+00   3.317560903755007e-05
2017-01-01T04:01:30.000  -3.915381238999860e+04   5.013612386028449e+03   2.882487510837812e-01  -1.026087968195561e+00  -3.112743793949027e+00   3.318056228839837e-05
2017-01-01T04:01:40.000  -3.916406058304729e+04   4.982483326854217e+03   2.885805813471097e-01  -1.023550699892336e+00  -3.113067584903072e+00   3.318548413864696e-05
2017-01-01T04:01:50.000  -3.917428340611928e+04   4.951351040548360e+03   2.889124606726844e-01  -1.021013968587940e+00  -3.113389206581858e+00   3.319037458854228e-05
2017-01-01T04:02:00.000  -3.918448086454695e+04   4.920215548934571e+03   2.892443887450125e-01  -1.018477775930104e+00  -3.113708660763354e+00   3.319523363834897e-05
2017-01-01T04:02:10.000  -3.919465296368492e+04   4.889076873800106e+03   2.895763652488029e-01  -1.015942123561397e+00  -3.114025949225970e+00   3.320006128835349e-05
2017-01-01T04:02:20.000  -3.920479970891741e+04   4.857935036878544e+03   2.899083898691494e-01  -1.013407013117780e+00  -3.114341073748839e+00   3.320485753887444e-05
2017-01-01T04:02:30.000  -3.921492110566818e+04   4.826790059812884e+03   2.902404622919252e-01  -1.010872446225661e+00  -3.114654036112039e+00   3.320962239026016e-05
2017-01-01T04:02:40.000  -3.922501715937062e+04   4.795641964250261e+03   2.905725822027732e-01  -1.008338424509585e+00  -3.114964838095697e+00   3.321435584287711e-05
2017-01-01T04:02:50.000  -3.923508787559814e+04   4.764490771431218e+03   2.909047492914865e-01  -1.005804949558904e+00  -3.115273481483862e+00   3.321905789716361e-05
2017-01-01T04:03:00.000  -3.924513325990546e+04   4.733336502687342e+03   2.912369632467015e-01  -1.003272022968184e+00  -3.115579968059753e+00   3.322372855356269e-05
2017-01-01T04:03:10.000  -3.925515331788881e+04   4.702179179253228e+03   2.915692237579030e-01  -1.000739646321938e+00  -3.115884299607561e+00   3.322836781254803e-05
2017-01-01T04:03:20.000  -3.926514805495146e+04   4.671018822994917e+03   2.919015305076570e-01  -9.982078212538397e-01  -3.116186477905333e+00   3.323297567452014e-05
2017-01-01T04:03:30.000  -3.927511747653833e+04   4.639855455681474e+03   2.922338831793777e-01  -9.956765493875085e-01  -3.116486504732088e+00   3.323755213991045e-05
2017-01-01T04:03:40.000  -3.928506158807510e+04   4.608689099172970e+03   2.925662814553242e-01  -9.931458323518075e-01  -3.116784381865965e+00   3.324209720915432e-05
2017-01-01T04:03:50.000  -3.929498039512990e+04   4.577519774923167e+03   2.928987250219023e-01  -9.906156717403742e-01  -3.117080111089212e+00   3.324661088276343e-05
2017-01-01T04:04:00.000  -3.930487390327937e+04   4.546347504389855e+03   2.932312135652903e-01  -9.880860691450315e-01  -3.117373694184010e+00   3.325109316126583e-05
2017-01-01T04:04:10.000  -3.931474211813955e+04   4.515172308940255e+03   2.935637467724478e-01  -9.855570261480905e-01  -3.117665132933439e+00   3.325554404521953e-05
2017-01-01T04:04:20.000  -3.932458504535244e+04   4.483994209887501e+03   2.938963243307272e-01  -9.830285443253715e-01  -3.117954429120971e+00   3.325996353520716e-05
2017-01-01T04:04:30.000  -3.933440269058182e+04   4.452813228508253e+03   2.942289459276857e-01  -9.805006252475889e-01  -3.118241584530429e+00   3.326435163183324e-05
2017-01-01T04:04:40.000  -3.934419505950153e+04   4.421629386080015e+03   2.945616112506872e-01  -9.779732704833860e-01  -3.118526600945628e+00   3.326870833571920e-05
2017-01-01T04:04:50.000  -3.935396215778841e+04   4.390442703898426e+03   2.948943199867188e-01  -9.754464816007838e-01  -3.118809480150090e+00   3.327303364749837e-05
2017-01-01T04:05:00.000  -3.936370399111257e+04   4.359253203314154e+03   2.952270718219966e-01  -9.729202601701196e-01  -3.119090223926856e+00   3.327732756781361e-05
2017-01-01T04:05:10.000  -3.937342056516623e+04   4.328060905638085e+03   2.955598664429773e-01  -9.703946077563957e-01  -3.119368834059271e+00   3.328159009732961e-05
2017-01-01T04:05:20.000  -3.938311188553810e+04   4.296865832552588e+03   2.958927035319698e-01  -9.678695259525045e-01  -3.119645312327516e+00   3.328582123667876e-05
2017-01-01T04:05:30.000  -3.939277795786611e+04   4.265668005613186e+03   2.962255827724535e-01  -9.653450163389612e-01  -3.119919660512845e+00   3.329002098652741e-05
2017-01-01T04:05:40.000  -3.940241878778018e+04   4.234467446433844e+03   2.965585038471003e-01  -9.628210804988910e-01  -3.120191880395978e+00   3.329418934755045e-05
2017-01-01T04:05:50.000  -3.941203438112445e+04   4.203264175969299e+03   2.968914664454335e-01  -9.602977199599694e-01  -3.120461973763376e+00   3.329832632053104e-05
2017-01-01T04:06:00.000  -3.942162474373526e+04   4.172058215230885e+03   2.972244702561900e-01  -9.577749362523477e-01  -3.120729942400954e+00   3.330243190626032e-05
2017-01-01T04:06:10.000  -3.943118988149203e+04   4.140849585124390e+03   2.975575149690494e-01  -9.552527308955230e-01  -3.120995788095542e+00   3.330650610556146e-05
2017-01-01T04:06:20.000  -3.944072980018975e+04   4.109638306853864e+03   2.978906002703277e-01  -9.527311054310881e-01  -3.121259512631131e+00   3.331054891922697e-05
2017-01-01T04:06:30.000  -3.945024450563456e+04   4.078424401621927e+03   2.982237258461734e-01  -9.502100613984011e-01  -3.121521117791732e+00   3.331456034806789e-05
2017-01-01T04:06:40.000  -3.945973400364225e+04   4.047207890629611e+03   2.985568913825701e-01  -9.476896003346231e-01  -3.121780605361257e+00   3.331854039290995e-05
2017-01-01T04:06:50.000  -3.946919829995036e+04   4.015988795376873e+03   2.988900965621278e-01  -9.451697237988792e-01  -3.122037977121291e+00   3.332248905456566e-05
2017-01-01T04:07:00.000  -3.947863740033790e+04   3.984767137257961e+03   2.992233410684029e-01  -9.426504333396923e-01  -3.122293234854186e+00   3.332640633387554e-05
2017-01-01T04:07:10.000  -3.948805131057768e+04   3.953542937720783e+03   2.995566245841975e-01  -9.401317305078297e-01  -3.122546380341800e+00   3.333029223169119e-05
2017-01-01T04:07:20.000  -3.949744003664887e+04   3.922316217562287e+03   2.998899467990808e-01  -9.376136167994652e-01  -3.122797415371216e+00   3.333414674895659e-05
